{
  "type": "FeatureCollection",
  "features": [
    {
      "type": "Feature",
      "properties": {
        "norad_id": 35088,
        "name": "FENGYUN 1C DEB",
        "group": "fengyun-1c-debris",
        "lat": -43.67329489551287,
        "lon": -26.739900824864428,
        "alt_km": 667.4786722943309,
        "timestamp": "2025-12-03T19:33:07.263254+00:00",
        "meta_object_name": "FENGYUN 1C DEB",
        "meta_object_id": "1999-025DJQ",
        "meta_epoch": "2025-11-29T05:34:28.115040",
        "meta_mean_motion": 14.11184638,
        "meta_eccentricity": 0.02705395,
        "meta_inclination": 94.6222,
        "meta_ra_of_asc_node": 155.3212,
        "meta_arg_of_pericenter": 245.136,
        "meta_mean_anomaly": 112.1475,
        "meta_ephemeris_type": 0,
        "meta_classification_type": "U",
        "meta_norad_cat_id": 35088,
        "meta_element_set_no": 999,
        "meta_rev_at_epoch": 58609,
        "meta_bstar": 0.0067362465,
        "meta_mean_motion_dot": 0.00017141,
        "meta_mean_motion_ddot": 0,
        "tle_line1": "1 35088U 99025DJQ 25333.23226985  .00017141  00000+0  67362-2 0  9991",
        "tle_line2": "2 35088  94.6222 155.3212 0270539 245.1360 112.1475 14.11184638586093"
      },
      "geometry": {
        "type": "Point",
        "coordinates": [
          -26.739900824864428,
          -43.67329489551287
        ]
      }
    },
    {
      "type": "Feature",
      "properties": {
        "norad_id": 35089,
        "name": "FENGYUN 1C DEB",
        "group": "fengyun-1c-debris",
        "lat": -60.739085891673206,
        "lon": 152.36059381154428,
        "alt_km": 853.0246663553362,
        "timestamp": "2025-12-03T19:33:07.263264+00:00",
        "meta_object_name": "FENGYUN 1C DEB",
        "meta_object_id": "1999-025DJR",
        "meta_epoch": "2025-12-01T07:12:14.382144",
        "meta_mean_motion": 14.19377212,
        "meta_eccentricity": 0.0029168,
        "meta_inclination": 98.5607,
        "meta_ra_of_asc_node": 345.5265,
        "meta_arg_of_pericenter": 97.6431,
        "meta_mean_anomaly": 262.806,
        "meta_ephemeris_type": 0,
        "meta_classification_type": "U",
        "meta_norad_cat_id": 35089,
        "meta_element_set_no": 999,
        "meta_rev_at_epoch": 60713,
        "meta_bstar": 0.00043403,
        "meta_mean_motion_dot": 8.74e-06,
        "meta_mean_motion_ddot": 0,
        "tle_line1": "1 35089U 99025DJR 25335.30016646  .00000874  00000+0  43403-3 0  9999",
        "tle_line2": "2 35089  98.5607 345.5265 0029168  97.6431 262.8060 14.19377212607136"
      },
      "geometry": {
        "type": "Point",
        "coordinates": [
          152.36059381154428,
          -60.739085891673206
        ]
      }
    },
    {
      "type": "Feature",
      "properties": {
        "norad_id": 35090,
        "name": "FENGYUN 1C DEB",
        "group": "fengyun-1c-debris",
        "lat": -77.22016645807277,
        "lon": 124.60014677954699,
        "alt_km": 872.3881404313106,
        "timestamp": "2025-12-03T19:33:07.263278+00:00",
        "meta_object_name": "FENGYUN 1C DEB",
        "meta_object_id": "1999-025DJS",
        "meta_epoch": "2025-11-28T11:16:09.482016",
        "meta_mean_motion": 14.17474979,
        "meta_eccentricity": 0.00568935,
        "meta_inclination": 99.1993,
        "meta_ra_of_asc_node": 344.6679,
        "meta_arg_of_pericenter": 56.1043,
        "meta_mean_anomaly": 304.5524,
        "meta_ephemeris_type": 0,
        "meta_classification_type": "U",
        "meta_norad_cat_id": 35090,
        "meta_element_set_no": 999,
        "meta_rev_at_epoch": 66048,
        "meta_bstar": 0.0014922384,
        "meta_mean_motion_dot": 3.028e-05,
        "meta_mean_motion_ddot": 0,
        "tle_line1": "1 35090U 99025DJS 25332.46955419  .00003028  00000+0  14922-2 0  9992",
        "tle_line2": "2 35090  99.1993 344.6679 0056893  56.1043 304.5524 14.17474979660488"
      },
      "geometry": {
        "type": "Point",
        "coordinates": [
          124.60014677954699,
          -77.22016645807277
        ]
      }
    },
    {
      "type": "Feature",
      "properties": {
        "norad_id": 35091,
        "name": "FENGYUN 1C DEB",
        "group": "fengyun-1c-debris",
        "lat": -81.33913728987216,
        "lon": 178.45605709903185,
        "alt_km": 675.3887566998983,
        "timestamp": "2025-12-03T19:33:07.263288+00:00",
        "meta_object_name": "FENGYUN 1C DEB",
        "meta_object_id": "1999-025DJT",
        "meta_epoch": "2025-12-02T06:09:49.044960",
        "meta_mean_motion": 14.61111684,
        "meta_eccentricity": 0.0047852,
        "meta_inclination": 98.5971,
        "meta_ra_of_asc_node": 80.1444,
        "meta_arg_of_pericenter": 324.8024,
        "meta_mean_anomaly": 35.0017,
        "meta_ephemeris_type": 0,
        "meta_classification_type": "U",
        "meta_norad_cat_id": 35091,
        "meta_element_set_no": 999,
        "meta_rev_at_epoch": 89774,
        "meta_bstar": 0.003029,
        "meta_mean_motion_dot": 0.00015113,
        "meta_mean_motion_ddot": 0,
        "tle_line1": "1 35091U 99025DJT 25336.25681765  .00015113  00000+0  30290-2 0  9998",
        "tle_line2": "2 35091  98.5971  80.1444 0047852 324.8024  35.0017 14.61111684897743"
      },
      "geometry": {
        "type": "Point",
        "coordinates": [
          178.45605709903185,
          -81.33913728987216
        ]
      }
    },
    {
      "type": "Feature",
      "properties": {
        "norad_id": 35104,
        "name": "FENGYUN 1C DEB",
        "group": "fengyun-1c-debris",
        "lat": 73.79186475075542,
        "lon": -163.87408069544884,
        "alt_km": 806.9804904441735,
        "timestamp": "2025-12-03T19:33:07.263298+00:00",
        "meta_object_name": "FENGYUN 1C DEB",
        "meta_object_id": "1999-025DKG",
        "meta_epoch": "2025-12-02T21:37:58.258272",
        "meta_mean_motion": 14.20301394,
        "meta_eccentricity": 0.00308416,
        "meta_inclination": 98.5961,
        "meta_ra_of_asc_node": 343.8811,
        "meta_arg_of_pericenter": 169.0388,
        "meta_mean_anomaly": 307.9028,
        "meta_ephemeris_type": 0,
        "meta_classification_type": "U",
        "meta_norad_cat_id": 35104,
        "meta_element_set_no": 999,
        "meta_rev_at_epoch": 89627,
        "meta_bstar": 0.00050973609,
        "meta_mean_motion_dot": 1.053e-05,
        "meta_mean_motion_ddot": 0,
        "tle_line1": "1 35104U 99025DKG 25336.90136873  .00001053  00000+0  50974-3 0  9990",
        "tle_line2": "2 35104  98.5961 343.8811 0030841 169.0388 307.9028 14.20301394896270"
      },
      "geometry": {
        "type": "Point",
        "coordinates": [
          -163.87408069544884,
          73.79186475075542
        ]
      }
    },
    {
      "type": "Feature",
      "properties": {
        "norad_id": 35105,
        "name": "FENGYUN 1C DEB",
        "group": "fengyun-1c-debris",
        "lat": 56.496996929288784,
        "lon": -55.3699933884333,
        "alt_km": 661.3800604894168,
        "timestamp": "2025-12-03T19:33:07.263308+00:00",
        "meta_object_name": "FENGYUN 1C DEB",
        "meta_object_id": "1999-025DKH",
        "meta_epoch": "2025-12-02T05:04:35.239008",
        "meta_mean_motion": 14.45332738,
        "meta_eccentricity": 0.0112947,
        "meta_inclination": 98.9425,
        "meta_ra_of_asc_node": 316.7027,
        "meta_arg_of_pericenter": 85.5502,
        "meta_mean_anomaly": 275.8582,
        "meta_ephemeris_type": 0,
        "meta_classification_type": "U",
        "meta_norad_cat_id": 35105,
        "meta_element_set_no": 999,
        "meta_rev_at_epoch": 94341,
        "meta_bstar": 0.00043583,
        "meta_mean_motion_dot": 1.604e-05,
        "meta_mean_motion_ddot": 0,
        "tle_line1": "1 35105U 99025DKH 25336.21151897  .00001604  00000+0  43583-3 0  9998",
        "tle_line2": "2 35105  98.9425 316.7027 0112947  85.5502 275.8582 14.45332738943416"
      },
      "geometry": {
        "type": "Point",
        "coordinates": [
          -55.3699933884333,
          56.496996929288784
        ]
      }
    },
    {
      "type": "Feature",
      "properties": {
        "norad_id": 35108,
        "name": "FENGYUN 1C DEB",
        "group": "fengyun-1c-debris",
        "lat": -3.9657352850054233,
        "lon": 153.07018497099568,
        "alt_km": 885.1519015383965,
        "timestamp": "2025-12-03T19:33:07.263318+00:00",
        "meta_object_name": "FENGYUN 1C DEB",
        "meta_object_id": "1999-025DKL",
        "meta_epoch": "2025-11-17T16:56:54.235392",
        "meta_mean_motion": 14.06875481,
        "meta_eccentricity": 0.01346692,
        "meta_inclination": 98.7997,
        "meta_ra_of_asc_node": 318.0085,
        "meta_arg_of_pericenter": 131.4741,
        "meta_mean_anomaly": 229.8083,
        "meta_ephemeris_type": 0,
        "meta_classification_type": "U",
        "meta_norad_cat_id": 35108,
        "meta_element_set_no": 999,
        "meta_rev_at_epoch": 88886,
        "meta_bstar": 0.00053903391,
        "meta_mean_motion_dot": 9.33e-06,
        "meta_mean_motion_ddot": 0,
        "tle_line1": "1 35108U 99025DKL 25321.70618328  .00000933  00000+0  53903-3 0  9997",
        "tle_line2": "2 35108  98.7997 318.0085 0134669 131.4741 229.8083 14.06875481888867"
      },
      "geometry": {
        "type": "Point",
        "coordinates": [
          153.07018497099568,
          -3.9657352850054233
        ]
      }
    }
  ]
}